{
  "norad_id": 52663,
  "name": "STARLINK-4037",
  "history": [
    {
      "epoch": "2026-03-28T22:46:06.657888Z",
      "apogee_km": 540.5716652792307,
      "perigee_km": 538.8655837251154,
      "latitude_deg": 1.7992283628292065e-06,
      "longitude_deg": -100.22284553654548,
      "height_km": 540.5475535115337,
      "semi_major_axis_km": 6917.855624502173,
      "eccentricity": 0.00012331,
      "inclination_deg": 53.2168,
      "raan_deg": 67.6667,
      "arg_perigee_deg": 85.5021,
      "mean_anomaly_deg": 274.6112,
      "mean_motion_rev_day": 15.08848102
    },
    {
      "epoch": "2026-03-29T05:07:38.879616Z",
      "apogee_km": 540.5668755555998,
      "perigee_km": 538.8526331298744,
      "latitude_deg": 2.5457596174477783e-05,
      "longitude_deg": 162.9423621263435,
      "height_km": 540.540743437918,
      "semi_major_axis_km": 6917.846754342737,
      "eccentricity": 0.0001239,
      "inclination_deg": 53.2168,
      "raan_deg": 66.4773,
      "arg_perigee_deg": 85.6624,
      "mean_anomaly_deg": 274.451,
      "mean_motion_rev_day": 15.08851004
    },
    {
      "epoch": "2026-03-30T04:58:26.266944Z",
      "apogee_km": 540.6014781417953,
      "perigee_km": 538.872009705814,
      "latitude_deg": -2.1933531888950952e-05,
      "longitude_deg": 159.8047395173889,
      "height_km": 540.602479796181,
      "semi_major_axis_km": 6917.873743923805,
      "eccentricity": 0.000125,
      "inclination_deg": 53.217,
      "raan_deg": 62.0165,
      "arg_perigee_deg": 88.0062,
      "mean_anomaly_deg": 272.1073,
      "mean_motion_rev_day": 15.08842174
    }
  ]
}